H1 CPF 01  gfz 2021 11 28 13  8322 tandemx   
H2 1003001  6202 36605    2021 11 28 12 59 42 2021 12 03 00 00 42   120 1 1  0 0 0
H9
10 0 59549  69102.000000  0   -5175437.159   2185485.811  -3994914.871
10 0 59549  69222.000000  0   -4576564.855   2137519.045  -4691907.749
10 0 59549  69342.000000  0   -3899394.521   2041226.464  -5306752.373
10 0 59549  69462.000000  0   -3156612.414   1897061.047  -5828783.319
10 0 59549  69582.000000  0   -2361995.777   1706531.328  -6248969.959
10 0 59549  69702.000000  0   -1530153.285   1472188.761  -6560062.291
10 0 59549  69822.000000  0    -676255.868   1197593.648  -6756703.440
10 0 59549  69942.000000  0     184235.759    887260.748  -6835511.511
10 0 59549  70062.000000  0    1035843.516    546586.402  -6795131.364
10 0 59549  70182.000000  0    1863344.371    181756.635  -6636257.617
10 0 59549  70302.000000  0    2652036.712   -200362.547  -6361623.041
10 0 59549  70422.000000  0    3387996.685   -592350.208  -5975957.145
10 0 59549  70542.000000  0    4058321.521   -986370.028  -5485912.013
10 0 59549  70662.000000  0    4651355.857  -1374321.839  -4899959.179
10 0 59549  70782.000000  0    5156899.822  -1748004.500  -4228255.091
10 0 59549  70902.000000  0    5566392.386  -2099285.523  -3482475.472
10 0 59549  71022.000000  0    5873066.737  -2420274.431  -2675620.650
10 0 59549  71142.000000  0    6072073.313  -2703496.359  -1821793.530
10 0 59549  71262.000000  0    6160566.431  -2942061.348   -935954.186
10 0 59549  71382.000000  0    6137752.842  -3129825.329    -33655.682
10 0 59549  71502.000000  0    6004899.534  -3261538.653    869234.411
10 0 59549  71622.000000  0    5765301.190  -3332978.344   1756820.952
10 0 59549  71742.000000  0    5424204.580  -3341059.463   2613471.447
10 0 59549  71862.000000  0    4988693.373  -3283923.181   3424099.164
10 0 59549  71982.000000  0    4467537.419  -3160998.553   4174435.575
10 0 59549  72102.000000  0    3871011.243  -2973037.867   4851284.866
10 0 59549  72222.000000  0    3210684.171  -2722125.386   5442758.632
10 0 59549  72342.000000  0    2499187.779  -2411657.008   5938482.581
10 0 59549  72462.000000  0    1749968.347  -2046293.574   6329774.120
10 0 59549  72582.000000  0     977028.234  -1631889.146   6609788.817
10 0 59549  72702.000000  0     194661.282  -1175395.064   6773634.078
10 0 59549  72822.000000  0    -582812.219   -684741.588   6818449.003
10 0 59549  72942.000000  0   -1341306.745   -168699.606   6743450.483
10 0 59549  73062.000000  0   -2067225.557    363275.796   6549946.068
10 0 59549  73182.000000  0   -2747703.640    901217.969   6241312.840
10 0 59549  73302.000000  0   -3370836.249   1434834.386   5822942.528
10 0 59549  73422.000000  0   -3925889.800   1953702.715   5302153.540
10 0 59549  73542.000000  0   -4403492.053   2447474.675   4688069.756
10 0 59549  73662.000000  0   -4795797.305   2906083.891   3991465.649
10 0 59549  73782.000000  0   -5096621.681   3319952.220   3224580.000
10 0 59549  73902.000000  0   -5301546.948   3680191.276   2400902.617
10 0 59549  74022.000000  0   -5407990.294   3978794.856   1534935.947
10 0 59549  74142.000000  0   -5415237.844   4208816.705    641934.487
10 0 59549  74262.000000  0   -5324438.969   4364528.021   -262371.713
10 0 59549  74382.000000  0   -5138563.531   4441551.678  -1162062.082
10 0 59549  74502.000000  0   -4862322.441   4436970.204  -2041315.599
10 0 59549  74622.000000  0   -4502051.933   4349402.670  -2884698.271
10 0 59549  74742.000000  0   -4065566.184   4179049.172  -3677439.620
10 0 59549  74862.000000  0   -3561982.686   3927703.199  -4405692.937
10 0 59549  74982.000000  0   -3001525.818   3598732.343  -5056774.008
10 0 59549  75102.000000  0   -2395315.072   3197028.653  -5619374.616
10 0 59549  75222.000000  0   -1755142.044   2728931.181  -6083750.700
10 0 59549  75342.000000  0   -1093239.068   2202120.299  -6441880.918
10 0 59549  75462.000000  0    -422046.432   1625487.836  -6687592.881
10 0 59549  75582.000000  0     246017.821   1008986.241  -6816658.808
10 0 59549  75702.000000  0     898781.653    363458.739  -6826860.544
10 0 59549  75822.000000  0    1524536.365   -299547.640  -6718024.741
10 0 59549  75942.000000  0    2112241.718   -967984.225  -6492023.889
10 0 59549  76062.000000  0    2651716.103  -1629513.753  -6152747.712
10 0 59549  76182.000000  0    3133810.857  -2271732.251  -5706043.261
10 0 59549  76302.000000  0    3550566.069  -2882397.609  -5159626.066
10 0 59549  76422.000000  0    3895346.205  -3449663.359  -4522957.664
10 0 59549  76542.000000  0    4162949.186  -3962308.892  -3807090.957
10 0 59549  76662.000000  0    4349689.844  -4409963.446  -3024488.727
10 0 59549  76782.000000  0    4453456.211  -4783320.493  -2188813.875
10 0 59549  76902.000000  0    4473735.411  -5074336.657  -1314694.030
10 0 59549  77022.000000  0    4411606.814  -5276409.945   -417464.104
10 0 59549  77142.000000  0    4269702.900  -5384530.838    487107.587
10 0 59549  77262.000000  0    4052138.597  -5395403.613   1383103.456
10 0 59549  77382.000000  0    3764410.082  -5307533.114   2254746.475
10 0 59549  77502.000000  0    3413264.688  -5121274.454   3086686.302
10 0 59549  77622.000000  0    3006547.140  -4838846.429   3864276.828
10 0 59549  77742.000000  0    2553025.384  -4464306.109   4573839.240
10 0 59549  77862.000000  0    2062201.059  -4003486.809   5202905.252
10 0 59549  77982.000000  0    1544108.836  -3463901.116   5740435.734
10 0 59549  78102.000000  0    1009109.073  -2854610.951   6177011.844
10 0 59549  78222.000000  0     467678.844  -2186068.821   6504994.063
10 0 59549  78342.000000  0     -69793.810  -1469934.032   6718648.922
10 0 59549  78462.000000  0    -593208.188   -718867.264   6814243.835
10 0 59549  78582.000000  0   -1092939.577     53694.938   6790108.838
10 0 59549  78702.000000  0   -1560015.586    833780.520   6646663.707
10 0 59549  78822.000000  0   -1986276.764   1607133.944   6386410.894
10 0 59549  78942.000000  0   -2364519.609   2359475.758   6013894.681
10 0 59549  79062.000000  0   -2688619.285   3076766.446   5535626.800
10 0 59549  79182.000000  0   -2953630.655   3745470.209   4959979.093
10 0 59549  79302.000000  0   -3155866.649   4352814.471   4297043.426
10 0 59549  79422.000000  0   -3292950.786   4887039.943   3558459.443
10 0 59549  79542.000000  0   -3363843.033   5337635.866   2757212.350
10 0 59549  79662.000000  0   -3368837.763   5695554.046   1907403.540
10 0 59549  79782.000000  0   -3309534.276   5953395.912   1023998.935
10 0 59549  79902.000000  0   -3188780.156   6105570.206    122560.483
10 0 59549  80022.000000  0   -3010588.698   6148416.094   -781036.401
10 0 59549  80142.000000  0   -2780032.894   6080286.824  -1670892.720
10 0 59549  80262.000000  0   -2503116.388   5901590.939  -2531376.784
10 0 59549  80382.000000  0   -2186625.750   5614789.834  -3347404.347
10 0 59549  80502.000000  0   -1837970.876   5224357.479  -4104705.032
10 0 59549  80622.000000  0   -1465016.264   4736699.611  -4790071.359
10 0 59549  80742.000000  0   -1075908.046   4160037.498  -5391583.318
10 0 59549  80862.000000  0    -678900.081   3504260.287  -5898808.401
10 0 59549  80982.000000  0    -282182.144   2780746.939  -6302973.689
10 0 59549  81102.000000  0     106285.373   2002162.354  -6597105.762
10 0 59549  81222.000000  0     478926.296   1182234.547  -6776139.591
10 0 59549  81342.000000  0     828691.989    335514.282  -6836997.411
10 0 59549  81462.000000  0    1149191.152   -522878.923  -6778635.615
10 0 59549  81582.000000  0    1434803.151  -1377521.301  -6602059.401
10 0 59549  81702.000000  0    1680773.921  -2212954.160  -6310306.490
10 0 59549  81822.000000  0    1883294.413  -3013956.312  -5908401.447
10 0 59549  81942.000000  0    2039559.700  -3765817.905  -5403279.870
10 0 59549  82062.000000  0    2147807.818  -4454611.854  -4803679.079
10 0 59549  82182.000000  0    2207337.113  -5067453.365  -4119996.758
10 0 59549  82302.000000  0    2218502.249  -5592746.165  -3364121.679
10 0 59549  82422.000000  0    2182688.242  -6020411.169  -2549235.371
10 0 59549  82542.000000  0    2102262.664  -6342091.321  -1689587.238
10 0 59549  82662.000000  0    1980505.556  -6551325.911   -800245.999
10 0 59549  82782.000000  0    1821522.040  -6643690.835    103168.040
10 0 59549  82902.000000  0    1630134.978  -6616896.736   1004764.221
10 0 59549  83022.000000  0    1411763.490  -6470848.217   1888668.147
10 0 59549  83142.000000  0    1172288.546  -6207656.635   2739312.403
10 0 59549  83262.000000  0     917909.623  -5831607.043   3541718.374
10 0 59549  83382.000000  0     654996.113  -5349082.967   4281765.971
10 0 59549  83502.000000  0     389937.938  -4768450.206   4946445.253
10 0 59549  83622.000000  0     128997.906  -4099902.451   5524086.174
10 0 59549  83742.000000  0    -121829.044  -3355272.155   6004561.682
10 0 59549  83862.000000  0    -356947.227  -2547811.252   6379460.469
10 0 59549  83982.000000  0    -571280.235  -1691949.222   6642226.576
10 0 59549  84102.000000  0    -760376.604   -803032.912   6788268.204
10 0 59549  84222.000000  0    -920499.786    102950.206   6815034.379
10 0 59549  84342.000000  0   -1048701.050   1009660.206   6722056.962
10 0 59549  84462.000000  0   -1142873.273   1900699.012   6510958.029
10 0 59549  84582.000000  0   -1201785.340   2759906.335   6185423.369
10 0 59549  84702.000000  0   -1225097.264   3571653.188   5751142.242
10 0 59549  84822.000000  0   -1213355.199   4321128.535   5215713.230
10 0 59549  84942.000000  0   -1167966.093   4994614.110   4588517.883
10 0 59549  85062.000000  0   -1091153.558   5579743.490   3880561.347
10 0 59549  85182.000000  0    -985894.153   6065736.933   3104282.273
10 0 59549  85302.000000  0    -855838.352   6443610.862   2273337.235
10 0 59549  85422.000000  0    -705213.835   6706355.125   1402356.406
10 0 59549  85542.000000  0    -538714.552   6849069.943    506680.444
99
